NORAD_CAT_ID,OBJECT_NAME,OBJECT_TYPE,EPOCH,MEAN_MOTION,ECCENTRICITY,INCLINATION,RA_OF_ASC_NODE,ARG_OF_PERICENTER,MEAN_ANOMALY,BSTAR,MEAN_MOTION_DOT,MEAN_MOTION_DDOT,TLE_LINE0,TLE_LINE1,TLE_LINE2,SEMIMAJOR_AXIS,PERIOD,APOGEE,PERIGEE,DECAYED
53902.0,STARLINK-5021,PAYLOAD,2024-08-12 00:26:03,15.08857869,0.0001328,53.2175,333.6757,96.198,263.9164,0.00044604,6.821e-05,0.0,0 STARLINK-5021,1 53902U 22119S   24225.01809156  .00006821  00000-0  44604-3 0  9997,2 53902  53.2175 333.6757 0001328  96.1980 263.9164 15.08857869105212,6917.826,95.436,540.609,538.772,0.0
53902.0,STARLINK-5021,PAYLOAD,2024-08-12 11:33:45,15.08848878,0.000207,53.2177,331.5934,115.7498,244.3708,0.00022414,3.282e-05,0.0,0 STARLINK-5021,1 53902U 22119S   24225.48177234  .00003282  00000-0  22414-3 0  9996,2 53902  53.2177 331.5934 0002070 115.7498 244.3708 15.08848878105289,6917.853,95.437,541.15,538.286,0.0
53902.0,STARLINK-5021,PAYLOAD,2024-08-13 00:16:47,15.08903379,4.8e-05,53.2172,329.215,59.6489,300.455,0.0014479,0.00022871,0.0,0 STARLINK-5021,1 53902U 22119S   24226.01166574  .00022871  00000-0  14479-2 0  9997,2 53902  53.2172 329.2150 0000480  59.6489 300.4550 15.08903379105363,6917.687,95.434,539.884,539.22,0.0
53902.0,STARLINK-5021,PAYLOAD,2024-08-13 12:59:53,15.0884704,0.0001012,53.2145,326.8362,105.5971,254.5133,-0.00031593,-5.313e-05,0.0,0 STARLINK-5021,1 53902U 22119S   24226.54159345 -.00005313  00000-0 -31593-3 0  9994,2 53902  53.2145 326.8362 0001012 105.5971 254.5133 15.08847040105447,6917.859,95.437,540.424,539.024,0.0
53902.0,STARLINK-5021,PAYLOAD,2024-08-13 14:35:16,15.08842106,6.67e-05,53.2207,326.5393,132.8441,227.2607,-0.0003218,-5.406e-05,0.0,0 STARLINK-5021,1 53902U 22119S   24226.60783320 -.00005406  00000-0 -32180-3 0  9993,2 53902  53.2207 326.5393 0000667 132.8441 227.2607 15.08842106105875,6917.874,95.437,540.2,539.278,0.0
53902.0,STARLINK-5021,PAYLOAD,2024-08-14 00:07:37,15.08812407,0.0001292,53.2156,324.7548,101.8253,258.2884,-0.0007799,-0.00012669,0.0,0 STARLINK-5021,1 53902U 22119S   24227.00529343 -.00012669  00000-0 -77990-3 0  9998,2 53902  53.2156 324.7548 0001292 101.8253 258.2884 15.08812407105515,6917.965,95.439,540.724,538.936,0.0
53902.0,STARLINK-5021,PAYLOAD,2024-08-14 12:50:42,15.08827197,0.0001834,53.2166,322.3748,102.4141,257.7057,-0.00018649,-3.254e-05,0.0,0 STARLINK-5021,1 53902U 22119S   24227.53521716 -.00003254  00000-0 -18649-3 0  9998,2 53902  53.2166 322.3748 0001834 102.4141 257.7057 15.08827197105593,6917.92,95.438,541.053,538.516,0.0
53902.0,STARLINK-5021,PAYLOAD,2024-08-14 23:58:24,15.08853568,0.0001538,53.2148,320.2985,68.8827,291.233,-8.7325e-05,-1.678e-05,0.0,0 STARLINK-5021,1 53902U 22119S   24227.99888974 -.00001678  00000-0 -87325-4 0  9996,2 53902  53.2148 320.2985 0001538  68.8827 291.2330 15.08853568105666,6917.839,95.437,540.768,538.64,0.0
53902.0,STARLINK-5021,PAYLOAD,2024-08-15 12:41:30,15.08833917,0.0001485,53.2187,317.9159,106.926,253.1895,0.00055282,8.52e-05,0.0,0 STARLINK-5021,1 53902U 22119S   24228.52882584  .00008520  00000-0  55282-3 0  9994,2 53902  53.2187 317.9159 0001485 106.9260 253.1895 15.08833917106166,6917.899,95.438,540.791,538.737,0.0
53902.0,STARLINK-5021,PAYLOAD,2024-08-15 14:16:53,15.08837765,0.0001685,53.2171,317.6178,102.2163,257.9017,0.00049814,7.648e-05,0.0,0 STARLINK-5021,1 53902U 22119S   24228.59506571  .00007648  00000-0  49814-3 0  9994,2 53902  53.2171 317.6178 0001685 102.2163 257.9017 15.08837765105757,6917.887,95.438,540.918,538.587,0.0
53902.0,STARLINK-5021,PAYLOAD,2024-08-16 09:21:31,15.08845,0.0001834,53.2168,314.0482,105.9054,254.2141,0.00041229,6.281e-05,0.0,0 STARLINK-5021,1 53902U 22119S   24229.38994537  .00006281  00000-0  41229-3 0  9999,2 53902  53.2168 314.0482 0001834 105.9054 254.2141 15.08845000106296,6917.865,95.437,540.999,538.461,0.0
53902.0,STARLINK-5021,PAYLOAD,2024-08-17 06:01:32,15.08842989,0.0001803,53.2166,310.1831,106.0053,254.1137,0.00018864,2.716e-05,0.0,0 STARLINK-5021,1 53902U 22119S   24230.25106554  .00002716  00000-0  18864-3 0  9999,2 53902  53.2166 310.1831 0001803 106.0053 254.1137 15.08842989106002,6917.871,95.437,540.984,538.489,0.0
53902.0,STARLINK-5021,PAYLOAD,2024-08-18 04:16:56,15.08839205,0.000191,53.2153,306.0184,125.7692,234.3478,7.9031e-05,9.7e-06,0.0,0 STARLINK-5021,1 53902U 22119S   24231.17842677  .00000970  00000-0  79031-4 0  9998,2 53902  53.2153 306.0184 0001910 125.7692 234.3478 15.08839205106149,6917.883,95.438,541.069,538.427,0.0
53902.0,STARLINK-5021,PAYLOAD,2024-08-18 10:38:27,15.08858406,0.0001653,53.2176,304.8325,123.9629,236.152,-0.00032554,-5.468e-05,0.0,0 STARLINK-5021,1 53902U 22119S   24231.44337647 -.00005468  00000-0 -32554-3 0  9991,2 53902  53.2176 304.8325 0001653 123.9629 236.1520 15.08858406106187,6917.824,95.436,540.833,538.546,0.0
53902.0,STARLINK-5021,PAYLOAD,2024-08-19 10:29:15,15.08836777,0.0001359,53.2179,300.3742,101.8106,258.3039,6.6153e-05,7.65e-06,0.0,0 STARLINK-5021,1 53902U 22119S   24232.43699019  .00000765  00000-0  66153-4 0  9991,2 53902  53.2179 300.3742 0001359 101.8106 258.3039 15.08836777106337,6917.89,95.438,540.695,538.815,0.0
53902.0,STARLINK-5021,PAYLOAD,2024-08-19 13:40:02,15.08835357,0.0001278,53.2173,299.7792,94.0894,266.0245,2.8938e-05,1.73e-06,0.0,0 STARLINK-5021,1 53902U 22119S   24232.56947127  .00000173  00000-0  28938-4 0  9993,2 53902  53.2173 299.7792 0001278  94.0894 266.0245 15.08835357106770,6917.895,95.438,540.644,538.875,0.0
53902.0,STARLINK-5021,PAYLOAD,2024-08-20 11:55:26,15.08844695,0.0001285,53.2171,295.6156,91.4411,268.6728,0.00012149,1.646e-05,0.0,0 STARLINK-5021,1 53902U 22119S   24233.49682876  .00001646  00000-0  12149-3 0  9995,2 53902  53.2171 295.6156 0001285  91.4411 268.6728 15.08844695106499,6917.866,95.437,540.62,538.842,0.0
53902.0,STARLINK-5021,PAYLOAD,2024-08-21 10:10:50,15.0883997,0.0001184,53.2159,291.451,100.2457,259.8669,0.00013852,1.917e-05,0.0,0 STARLINK-5021,1 53902U 22119S   24234.42419092  .00001917  00000-0  13852-3 0  9990,2 53902  53.2159 291.4510 0001184 100.2457 259.8669 15.08839970106632,6917.88,95.438,540.565,538.926,0.0
